     2.100          NAVIGATION                              RINEX VERSION / TYPE
fic2rin                                 08/16/2012 00:06:28 PGM / RUN BY / DATE
                                                            END OF HEADER
 6 12  8 15  6  0  0.0 -.943522900343D-05 -.704858393874D-11  .000000000000D+00
     .570000000000D+02 -.887500000000D+02  .464840791056D-08  .279363673702D+01
    -.458955764771D-05  .734486524016D-02  .100526958704D-04  .515369384766D+04
     .280800000000D+06 -.223517417908D-07  .256802969039D+01  .912696123123D-07
     .939012979351D+00  .171312500000D+03 -.466255525826D+00 -.802354849872D-08
    -.928610108910D-11  .100000000000D+01  .170100000000D+04  .000000000000D+00
     .240000000000D+01  .000000000000D+00 -.512227416039D-08  .570000000000D+02
     .273606000000D+06  .400000000000D+01
 7 12  8 15  6  0  0.0  .111073721200D-03  .409272615798D-11  .000000000000D+00
     .210000000000D+02  .106312500000D+03  .420553232016D-08 -.590844587094D+00
     .536069273949D-05  .583812512923D-02  .538304448128D-05  .515372654724D+04
     .280800000000D+06  .158324837685D-06  .548318230009D+00 -.540167093277D-07
     .976037845745D+00  .285968750000D+03 -.300840404637D+01 -.811212361680D-08
     .141077305007D-09  .100000000000D+01  .170100000000D+04  .000000000000D+00
     .240000000000D+01  .000000000000D+00 -.107102096081D-07  .210000000000D+02
     .273606000000D+06  .400000000000D+01
 8 12  8 15  6  0  0.0  .202516093850D-05  .113686837722D-12  .000000000000D+00
     .790000000000D+02  .102468750000D+03  .373122684915D-08 -.128273691969D+01
     .518746674061D-05  .125901813153D-01  .477954745293D-05  .515365809250D+04
     .280800000000D+06  .540167093277D-07  .633335199239D+00 -.277534127235D-06
     .998284629693D+00  .307218750000D+03 -.294892273207D+01 -.780246786125D-08
     .312870175156D-09  .100000000000D+01  .170100000000D+04  .000000000000D+00
     .240000000000D+01  .000000000000D+00 -.419095158577D-08  .790000000000D+02
     .273606000000D+06  .400000000000D+01
 9 12  8 15  6  0  0.0  .178784597665D-03  .261479726760D-11  .000000000000D+00
     .590000000000D+02  .110375000000D+03  .406695511929D-08 -.127097663097D+01
     .592879951000D-05  .174076851690D-01  .633485615253D-05  .515361444473D+04
     .280800000000D+06 -.292435288429D-06  .523163665238D+00  .316649675369D-06
     .984762706725D+00  .271937500000D+03  .164276888561D+01 -.811783814054D-08
     .157149403046D-09  .100000000000D+01  .170100000000D+04  .000000000000D+00
     .340000000000D+01  .000000000000D+00 -.558793544769D-08  .590000000000D+02
     .273606000000D+06  .400000000000D+01
11 12  8 15  6  0  0.0 -.292327720672D-03 -.386535248253D-11  .000000000000D+00
     .330000000000D+02  .221562500000D+02  .627418991662D-08 -.484639205408D+00
     .129081308842D-05  .132887617219D-01  .932067632675D-05  .515367765617D+04
     .280800000000D+06 -.298023223877D-07 -.288798053607D+01  .210478901863D-06
     .888638684122D+00  .165312500000D+03  .107417793331D+01 -.902216152353D-08
     .625026034843D-09  .100000000000D+01  .170100000000D+04  .000000000000D+00
     .240000000000D+01  .000000000000D+00 -.121071934700D-07  .330000000000D+02
     .273606000000D+06  .400000000000D+01
12 12  8 15  6  0  0.0  .855070538819D-04  .204636307899D-11  .000000000000D+00
     .180000000000D+02 -.569375000000D+02  .422481883781D-08 -.976566800350D+00
    -.295974314213D-05  .402825290803D-02  .221095979214D-05  .515373827934D+04
     .280800000000D+06  .117346644402D-06  .160540470707D+01 -.141561031342D-06
     .980455713516D+00  .349437500000D+03  .135348014748D+00 -.817534053575D-08
    -.235009789101D-09  .100000000000D+01  .170100000000D+04  .000000000000D+00
     .240000000000D+01  .000000000000D+00 -.121071934700D-07  .180000000000D+02
     .273606000000D+06  .400000000000D+01
13 12  8 15  6  0  0.0  .187875702977D-03 -.250111042988D-11  .000000000000D+00
     .640000000000D+02  .574687500000D+02  .372479800993D-08  .163175829559D+01
     .281631946564D-05  .488007557578D-02  .113826245070D-04  .515363669586D+04
     .280800000000D+06  .521540641785D-07 -.420732928187D+00 -.633299350739D-07
     .985061120070D+00  .167406250000D+03  .206764945573D+01 -.749674084078D-08
    -.397159400426D-09  .100000000000D+01  .170100000000D+04  .000000000000D+00
     .240000000000D+01  .000000000000D+00 -.111758708954D-07  .640000000000D+02
     .273606000000D+06  .400000000000D+01
14 12  8 15  6  0  0.0  .210035126656D-03  .113686837722D-11  .000000000000D+00
     .890000000000D+02  .356250000000D+02  .389266214500D-08  .189424954611D+01
     .174529850483D-05  .669269193895D-02  .112242996693D-04  .515363294792D+04
     .280800000000D+06 -.100582838058D-06 -.447969773979D+00 -.135973095894D-06
     .977840416830D+00  .173906250000D+03 -.206378020711D+01 -.760103089916D-08
    -.356443418728D-09  .100000000000D+01  .170100000000D+04  .000000000000D+00
     .240000000000D+01  .000000000000D+00 -.931322574615D-08  .890000000000D+02
     .273606000000D+06  .400000000000D+01
15 12  8 15  6  0  0.0 -.937613658607D-04 -.568434188608D-12  .000000000000D+00
     .280000000000D+02  .215937500000D+02  .482555814672D-08  .144880457417D+01
     .139884650707D-05  .451422331389D-02  .111851841211D-04  .515361382675D+04
     .280800000000D+06  .409781932831D-07 -.538348611535D+00  .558793544769D-07
     .944539848745D+00  .152718750000D+03  .389852980427D-01 -.808997983728D-08
    -.501449458811D-09  .100000000000D+01  .170100000000D+04  .000000000000D+00
     .240000000000D+01  .000000000000D+00 -.102445483208D-07  .280000000000D+02
     .273606000000D+06  .400000000000D+01
16 12  8 15  6  0  0.0 -.243745744228D-03 -.909494701773D-12  .000000000000D+00
     .350000000000D+02 -.667812500000D+02  .417910264783D-08  .307853443437D+01
    -.349245965481D-05  .655742106028D-02  .289455056190D-05  .515372527885D+04
     .280800000000D+06 -.745058059692D-07  .162361704969D+01  .372529029846D-08
     .981258769229D+00  .336343750000D+03  .282692402473D-01 -.809319425688D-08
    -.237867050975D-09  .100000000000D+01  .170100000000D+04  .000000000000D+00
     .240000000000D+01  .000000000000D+00 -.977888703346D-08  .350000000000D+02
     .273606000000D+06  .400000000000D+01
17 12  8 15  6  0  0.0  .104962382466D-03 -.318323145621D-11  .000000000000D+00
     .230000000000D+02 -.975937500000D+02  .401731019424D-08  .216102076829D+01
    -.491179525852D-05  .745603698306D-02  .110585242510D-04  .515373375320D+04
     .280800000000D+06 -.122934579849D-06  .266357301351D+01 -.141561031342D-06
     .963792141788D+00  .165218750000D+03 -.229591599526D+01 -.775568019807D-08
     .143220251413D-09  .100000000000D+01  .170100000000D+04  .000000000000D+00
     .240000000000D+01  .000000000000D+00 -.107102096081D-07  .230000000000D+02
     .273606000000D+06  .400000000000D+01
19 12  8 15  6  0  0.0 -.294466037303D-03 -.352429196937D-11  .000000000000D+00
     .860000000000D+02 -.733750000000D+02  .414910139816D-08  .133299367091D+01
    -.376254320145D-05  .856657850090D-02  .111609697342D-04  .515361873627D+04
     .280800000000D+06 -.875443220139D-07  .271636012147D+01  .968575477600D-07
     .961164850637D+00  .164812500000D+03  .226263378972D+00 -.782889753358D-08
     .232152527227D-10  .100000000000D+01  .170100000000D+04  .000000000000D+00
     .240000000000D+01  .000000000000D+00 -.149011611938D-07  .860000000000D+02
     .273606000000D+06  .400000000000D+01
20 12  8 15  6  0  0.0  .662887468934D-04  .682121026330D-12  .000000000000D+00
     .340000000000D+02 -.158750000000D+02  .577309761555D-08 -.224513243114D+01
    -.815838575363D-06  .493833492510D-02  .513158738613D-05  .515364264679D+04
     .280800000000D+06  .800937414169D-07 -.160873147787D+01  .428408384323D-07
     .929194326708D+00  .263437500000D+03  .128152421473D+01 -.853356974315D-08
    -.143934566881D-09  .100000000000D+01  .170100000000D+04  .000000000000D+00
     .240000000000D+01  .000000000000D+00 -.791624188423D-08  .340000000000D+02
     .273606000000D+06  .400000000000D+01
23 12  8 15  6  0  0.0  .174924731255D-03 -.386535248253D-11  .000000000000D+00
     .560000000000D+02  .418125000000D+02  .444697094848D-08  .931768137963D+00
     .232644379139D-05  .821233319584D-02  .109057873487D-04  .515360167122D+04
     .280800000000D+06  .447034835815D-07 -.501471575938D+00  .596046447754D-07
     .959361533464D+00  .165062500000D+03 -.295597646662D+01 -.793497338063D-08
    -.500735143343D-09  .100000000000D+01  .170100000000D+04  .000000000000D+00
     .340000000000D+01  .000000000000D+00 -.200234353542D-07  .560000000000D+02
     .273606000000D+06  .400000000000D+01
24 12  8 15  6  0  0.0 -.234961975366D-03  .227373675443D-11  .000000000000D+00
     .134000000000D+03 -.573125000000D+02  .555130266261D-08  .281767414440D+01
    -.300630927086D-05  .567867257632D-02  .219233334064D-05  .515377722168D+04
     .280800000000D+06  .242143869400D-07  .158567401202D+01 -.521540641785D-07
     .974207031565D+00  .344187500000D+03  .903078229770D+00 -.816462580372D-08
    -.185722021782D-09  .100000000000D+01  .170100000000D+04  .000000000000D+00
     .240000000000D+01  .630000000000D+02 -.190921127796D-07  .134000000000D+03
     .273606000000D+06  .400000000000D+01
25 12  8 15  6  0  0.0  .397739931941D-04  .102318153949D-11  .000000000000D+00
     .140000000000D+03 -.540000000000D+02  .440054044303D-08 -.218726740287D+01
    -.269897282124D-05  .183267728426D-02  .200420618057D-05  .515367397118D+04
     .280800000000D+06 -.484287738800D-07  .157039571546D+01 -.596046447754D-07
     .969304382001D+00  .346750000000D+03  .778351420135D+00 -.823962892790D-08
    -.177150236161D-09  .100000000000D+01  .170100000000D+04  .000000000000D+00
     .240000000000D+01  .000000000000D+00  .512227416039D-08  .140000000000D+03
     .273606000000D+06  .400000000000D+01
